[
    {
        "Altitude(m)": 610405.2769348358,
        "Argument of Periapsis(deg)": 0.0,
        "Eccentricity": 0.0,
        "Inclination(deg)": 60.0,
        "Latitude(deg)": 52.11114440454784,
        "Longitude(deg)": -107.52251801901416,
        "Mean Anomaly(deg)": 114.5455,
        "RAAN(deg)": 220.00000000000003,
        "Satellite Name": "Test1 975",
        "Satellite Number": 975,
        "Semi-Major Axis(m)": 6980739.136638005,
        "Time(s)": 0
    },
    {
        "Altitude(m)": 610321.849528892,
        "Argument of Periapsis(deg)": 0.00010418945913296404,
        "Eccentricity": 0.0,
        "Inclination(deg)": 60.0,
        "Latitude(deg)": 51.74585871054999,
        "Longitude(deg)": -106.75362718796919,
        "Mean Anomaly(deg)": 115.16560614546188,
        "RAAN(deg)": 219.99957995086027,
        "Satellite Name": "Test1 975",
        "Satellite Number": 975,
        "Semi-Major Axis(m)": 6980739.136638005,
        "Time(s)": 10
    }
]